43039,ALCOMSAT 1,2017,1436.12,5225.0,+,0.06,Active,1,GSO,PRC,Algeria,Government,Communications,Long March,1 43039U 17078A   24025.36646354 -.00000185  00000+0  00000+0 0  9995,2 43039   0.0566 236.4797 0002870  48.2682 306.5342  1.00270313 22535,1.00270313,0.000287,GEO
43055,GSAT0215 (GALILEO 19),2017,844.7,715.0,+,55.41,Active,1,MEO,French Guiana,ESA,Commercial,Navigation (Global or Regional Positioning),Ariane,1 43055U 17079A   24025.00777559  .00000055  00000+0  00000+0 0  9992,2 43055  55.4114 245.5689 0001547  11.7310 348.3517  1.70474107 38089,1.70474107,0.0001547,MEO
43057,GSAT0217 (GALILEO 21),2017,844.7,715.0,+,55.41,Active,1,MEO,French Guiana,ESA,Commercial,Navigation (Global or Regional Positioning),Ariane,1 43057U 17079C   24022.00049155  .00000060  00000+0  00000+0 0  9991,2 43057  55.4100 245.6506 0002850 347.6298  12.4436  1.70474050 38030,1.7047405,0.000285,MEO
43058,GSAT0218 (GALILEO 22),2017,844.7,715.0,+,55.41,Active,1,MEO,French Guiana,ESA,Commercial,Navigation (Global or Regional Positioning),Ariane,1 43058U 17079D   24022.80710451  .00000060  00000+0  00000+0 0  9994,2 43058  55.4099 245.6259 0002681 315.2151  44.8451  1.70474170 38077,1.7047417,0.0002681,MEO
43065,GCOM-C (SHIKISAI),2017,100.89,2200.0,+,98.59,Active,1,LEO,Japan,Japan,Government,Earth Observation,H2A,1 43065U 17082A   24025.59227668  .00000341  00000+0  15702-3 0  9999,2 43065  98.5858 100.3593 0001097  98.0390 262.0915 14.27287781317328,14.27287781,0.0001097,LEO
43070,IRIDIUM 135,2017,100.4,860.0,+,86.4,Active,1,LEO,USA,USA,Commercial/Government,Communications,Falcon,1 43070U 17083A   24025.37063542  .00000684  00000+0  23723-3 0  9993,2 43070  86.4000 327.2148 0002224  94.8233 265.3217 14.34214673318902,14.34214673,0.0002224,LEO
43071,IRIDIUM 138,2017,100.4,860.0,+,86.4,Active,1,LEO,USA,USA,Commercial/Government,Communications,Falcon,1 43071U 17083B   24025.32624008  .00000074  00000+0  19383-4 0  9990,2 43071  86.3987 326.9685 0002170  80.6099 279.5342 14.34217320318886,14.3421732,0.000217,LEO
43072,IRIDIUM 116,2017,100.4,860.0,+,86.4,Active,1,LEO,USA,USA,Commercial/Government,Communications,Falcon,1 43072U 17083C   24025.36428853  .00000433  00000+0  14765-3 0  9992,2 43072  86.3996 327.2133 0002167  89.0059 271.1385 14.34216596318928,14.34216596,0.0002167,LEO
43073,IRIDIUM 130,2017,100.4,860.0,+,86.4,Active,1,LEO,USA,USA,Commercial/Government,Communications,Falcon,1 43073U 17083D   24025.33258225  .00000155  00000+0  48230-4 0  9990,2 43073  86.4009 327.4172 0002029  85.6306 274.5121 14.34218412318861,14.34218412,0.0002029,LEO
43074,IRIDIUM 151,2017,100.4,860.0,+,86.4,Active,1,LEO,USA,USA,Commercial/Government,Communications,Falcon,1 43074U 17083E   24025.37697901  .00000563  00000+0  19404-3 0  9996,2 43074  86.3999 327.2464 0002446  84.5727 275.5748 14.34220950318898,14.3422095,0.0002446,LEO
43075,IRIDIUM 134,2017,100.4,860.0,+,86.4,Active,1,LEO,USA,USA,Commercial/Government,Communications,Falcon,1 43075U 17083F   24025.34526435  .00000270  00000+0  89232-4 0  9999,2 43075  86.4000 327.2557 0001929  85.7103 274.4313 14.34217407318857,14.34217407,0.0001929,LEO
43077,IRIDIUM 141,2017,100.4,860.0,+,86.4,Active,1,LEO,USA,USA,Commercial/Government,Communications,Falcon,1 43077U 17083H   24025.35160242  .00000612  00000+0  21140-3 0  9995,2 43077  86.3998 327.2086 0002160  84.1226 276.0216 14.34216100318925,14.342161,0.000216,LEO
43078,IRIDIUM 153,2017,100.4,860.0,+,86.4,Active,1,LEO,USA,USA,Commercial/Government,Communications,Falcon,1 43078U 17083J   24025.30378778  .00000152  00000+0  47134-4 0  9997,2 43078  86.3977 295.6808 0002360  75.6626 284.4832 14.34216979320029,14.34216979,0.000236,LEO
